NORAD_CAT_ID,OBJECT_NAME,OBJECT_TYPE,EPOCH,MEAN_MOTION,ECCENTRICITY,INCLINATION,RA_OF_ASC_NODE,ARG_OF_PERICENTER,MEAN_ANOMALY,BSTAR,MEAN_MOTION_DOT,MEAN_MOTION_DDOT,TLE_LINE0,TLE_LINE1,TLE_LINE2,SEMIMAJOR_AXIS,PERIOD,APOGEE,PERIGEE,DECAYED
55759.0,STARLINK-5081,PAYLOAD,2024-08-21 08:54:10,14.98330358,0.0002757,70.0,209.8766,273.4833,86.6011,4.0997e-05,3.96e-06,0.0,0 STARLINK-5081,1 55759U 23028U   24234.37095041  .00000396  00000-0  40997-4 0  9991,2 55759  70.0000 209.8766 0002757 273.4833  86.6011 14.98330358 81857,6950.192,96.107,573.973,570.141,0.0
